{
  "type": "FeatureCollection",
  "features": [
    {
      "type": "Feature",
      "properties": {
        "norad_id": 15362,
        "name": "NOVA 3",
        "group": "nnss",
        "lat": 44.33452612926372,
        "lon": 80.34108167450454,
        "alt_km": 1155.8308048290673,
        "timestamp": "2025-12-06T11:28:11.331310+00:00",
        "meta_object_name": "NOVA 3",
        "meta_object_id": "1984-110A",
        "meta_epoch": "2025-12-05T21:20:06.144864",
        "meta_mean_motion": 13.23043281,
        "meta_eccentricity": 0.00310627,
        "meta_inclination": 90.1225,
        "meta_ra_of_asc_node": 80.4539,
        "meta_arg_of_pericenter": 351.1717,
        "meta_mean_anomaly": 129.4343,
        "meta_ephemeris_type": 0,
        "meta_classification_type": "U",
        "meta_norad_cat_id": 15362,
        "meta_element_set_no": 999,
        "meta_rev_at_epoch": 98608,
        "meta_bstar": 0.00023552905,
        "meta_mean_motion_dot": 1.08e-06,
        "meta_mean_motion_ddot": 0,
        "tle_line1": "1 15362U 84110A   25339.88896001  .00000108  00000+0  23553-3 0  9992",
        "tle_line2": "2 15362  90.1225  80.4539 0031062 351.1717 129.4343 13.23043281986088"
      },
      "geometry": {
        "type": "Point",
        "coordinates": [
          80.34108167450454,
          44.33452612926372
        ]
      }
    },
    {
      "type": "Feature",
      "properties": {
        "norad_id": 15935,
        "name": "OSCAR 30",
        "group": "nnss",
        "lat": -13.546349941212638,
        "lon": -80.2949812210849,
        "alt_km": 1130.8959845313775,
        "timestamp": "2025-12-06T11:28:11.331320+00:00",
        "meta_object_name": "OSCAR 30",
        "meta_object_id": "1985-066A",
        "meta_epoch": "2025-12-05T22:31:43.286016",
        "meta_mean_motion": 13.36076487,
        "meta_eccentricity": 0.0169362,
        "meta_inclination": 90.1648,
        "meta_ra_of_asc_node": 99.736,
        "meta_arg_of_pericenter": 102.8839,
        "meta_mean_anomaly": 16.5809,
        "meta_ephemeris_type": 0,
        "meta_classification_type": "U",
        "meta_norad_cat_id": 15935,
        "meta_element_set_no": 999,
        "meta_rev_at_epoch": 96362,
        "meta_bstar": 0.00023154159,
        "meta_mean_motion_dot": 1.39e-06,
        "meta_mean_motion_ddot": 0,
        "tle_line1": "1 15935U 85066A   25339.93869544  .00000139  00000+0  23154-3 0  9998",
        "tle_line2": "2 15935  90.1648  99.7360 0169362 102.8839  16.5809 13.36076487963625"
      },
      "geometry": {
        "type": "Point",
        "coordinates": [
          -80.2949812210849,
          -13.546349941212638
        ]
      }
    },
    {
      "type": "Feature",
      "properties": {
        "norad_id": 15936,
        "name": "OSCAR 24",
        "group": "nnss",
        "lat": -89.35159209369837,
        "lon": 108.21052354106428,
        "alt_km": 1253.9092222553118,
        "timestamp": "2025-12-06T11:28:11.331331+00:00",
        "meta_object_name": "OSCAR 24",
        "meta_object_id": "1985-066B",
        "meta_epoch": "2025-12-05T22:09:38.082816",
        "meta_mean_motion": 13.35934235,
        "meta_eccentricity": 0.01703785,
        "meta_inclination": 90.1788,
        "meta_ra_of_asc_node": 92.1849,
        "meta_arg_of_pericenter": 109.3653,
        "meta_mean_anomaly": 15.201,
        "meta_ephemeris_type": 0,
        "meta_classification_type": "U",
        "meta_norad_cat_id": 15936,
        "meta_element_set_no": 999,
        "meta_rev_at_epoch": 96552,
        "meta_bstar": 0.00022573682,
        "meta_mean_motion_dot": 1.36e-06,
        "meta_mean_motion_ddot": 0,
        "tle_line1": "1 15936U 85066B   25339.92335744  .00000136  00000+0  22574-3 0  9990",
        "tle_line2": "2 15936  90.1788  92.1849 0170378 109.3653  15.2010 13.35934235965529"
      },
      "geometry": {
        "type": "Point",
        "coordinates": [
          108.21052354106428,
          -89.35159209369837
        ]
      }
    },
    {
      "type": "Feature",
      "properties": {
        "norad_id": 17070,
        "name": "POLAR BEAR",
        "group": "nnss",
        "lat": -58.89117710689029,
        "lon": -176.60962393752683,
        "alt_km": 1016.6009576663764,
        "timestamp": "2025-12-06T11:28:11.331342+00:00",
        "meta_object_name": "POLAR BEAR",
        "meta_object_id": "1986-088A",
        "meta_epoch": "2025-12-05T15:06:25.540992",
        "meta_mean_motion": 13.75248618,
        "meta_eccentricity": 0.00404842,
        "meta_inclination": 89.6179,
        "meta_ra_of_asc_node": 184.0581,
        "meta_arg_of_pericenter": 139.9261,
        "meta_mean_anomaly": 283.1057,
        "meta_ephemeris_type": 0,
        "meta_classification_type": "U",
        "meta_norad_cat_id": 17070,
        "meta_element_set_no": 999,
        "meta_rev_at_epoch": 95881,
        "meta_bstar": 0.00016715435,
        "meta_mean_motion_dot": 1.73e-06,
        "meta_mean_motion_ddot": 0,
        "tle_line1": "1 17070U 86088A   25339.62946228  .00000173  00000+0  16715-3 0  9999",
        "tle_line2": "2 17070  89.6179 184.0581 0040484 139.9261 283.1057 13.75248618958817"
      },
      "geometry": {
        "type": "Point",
        "coordinates": [
          -176.60962393752683,
          -58.89117710689029
        ]
      }
    },
    {
      "type": "Feature",
      "properties": {
        "norad_id": 18361,
        "name": "OSCAR 27",
        "group": "nnss",
        "lat": 19.489350465262124,
        "lon": -100.82949145542212,
        "alt_km": 1079.2383633747359,
        "timestamp": "2025-12-06T11:28:11.331352+00:00",
        "meta_object_name": "OSCAR 27",
        "meta_object_id": "1987-080A",
        "meta_epoch": "2025-12-05T18:35:37.140288",
        "meta_mean_motion": 13.44904458,
        "meta_eccentricity": 0.01024963,
        "meta_inclination": 90.3742,
        "meta_ra_of_asc_node": 79.0117,
        "meta_arg_of_pericenter": 244.0221,
        "meta_mean_anomaly": 115.0341,
        "meta_ephemeris_type": 0,
        "meta_classification_type": "U",
        "meta_norad_cat_id": 18361,
        "meta_element_set_no": 999,
        "meta_rev_at_epoch": 87463,
        "meta_bstar": 0.00028133,
        "meta_mean_motion_dot": 1.78e-06,
        "meta_mean_motion_ddot": 0,
        "tle_line1": "1 18361U 87080A   25339.77473542  .00000178  00000+0  28133-3 0  9998",
        "tle_line2": "2 18361  90.3742  79.0117 0102496 244.0221 115.0341 13.44904458874633"
      },
      "geometry": {
        "type": "Point",
        "coordinates": [
          -100.82949145542212,
          19.489350465262124
        ]
      }
    },
    {
      "type": "Feature",
      "properties": {
        "norad_id": 18362,
        "name": "OSCAR 29",
        "group": "nnss",
        "lat": -3.0130368639301945,
        "lon": -100.52343593068667,
        "alt_km": 1085.211230029532,
        "timestamp": "2025-12-06T11:28:11.331362+00:00",
        "meta_object_name": "OSCAR 29",
        "meta_object_id": "1987-080B",
        "meta_epoch": "2025-12-05T20:50:57.566976",
        "meta_mean_motion": 13.44446435,
        "meta_eccentricity": 0.01037235,
        "meta_inclination": 90.3754,
        "meta_ra_of_asc_node": 79.4735,
        "meta_arg_of_pericenter": 267.1598,
        "meta_mean_anomaly": 210.1892,
        "meta_ephemeris_type": 0,
        "meta_classification_type": "U",
        "meta_norad_cat_id": 18362,
        "meta_element_set_no": 999,
        "meta_rev_at_epoch": 87417,
        "meta_bstar": 0.00024259225,
        "meta_mean_motion_dot": 1.53e-06,
        "meta_mean_motion_ddot": 0,
        "tle_line1": "1 18362U 87080B   25339.86872184  .00000153  00000+0  24259-3 0  9992",
        "tle_line2": "2 18362  90.3754  79.4735 0103723 267.1598 210.1892 13.44446435874177"
      },
      "geometry": {
        "type": "Point",
        "coordinates": [
          -100.52343593068667,
          -3.0130368639301945
        ]
      }
    },
    {
      "type": "Feature",
      "properties": {
        "norad_id": 19070,
        "name": "OSCAR 23",
        "group": "nnss",
        "lat": -24.142002810450464,
        "lon": 16.34304901251384,
        "alt_km": 1266.2247802784013,
        "timestamp": "2025-12-06T11:28:11.331373+00:00",
        "meta_object_name": "OSCAR 23",
        "meta_object_id": "1988-033A",
        "meta_epoch": "2025-12-05T16:18:45.237600",
        "meta_mean_motion": 13.27785497,
        "meta_eccentricity": 0.01889371,
        "meta_inclination": 90.322,
        "meta_ra_of_asc_node": 16.1737,
        "meta_arg_of_pericenter": 199.5773,
        "meta_mean_anomaly": 281.6539,
        "meta_ephemeris_type": 0,
        "meta_classification_type": "U",
        "meta_norad_cat_id": 19070,
        "meta_element_set_no": 999,
        "meta_rev_at_epoch": 82159,
        "meta_bstar": 0.00023902205,
        "meta_mean_motion_dot": 1.27e-06,
        "meta_mean_motion_ddot": 0,
        "tle_line1": "1 19070U 88033A   25339.67969025  .00000127  00000+0  23902-3 0  9993",
        "tle_line2": "2 19070  90.3220  16.1737 0188937 199.5773 281.6539 13.27785497821599"
      },
      "geometry": {
        "type": "Point",
        "coordinates": [
          16.34304901251384,
          -24.142002810450464
        ]
      }
    }
  ]
}